start=new Date('2022-01-14T00:00:00.000Z').valueOf();
sats=[{"COUNTRY_CODE":"US","MEAN_MOTION":"15.06397280","SEMIMAJOR_AXIS":"6925.357","ARG_OF_PERICENTER":"80.7041","LAUNCH_DATE":"2020-10-18","REV_AT_EPOCH":"6865","RA_OF_ASC_NODE":"206.7000","TLE_LINE1":"1 46711U 20073AT  22013.80391103  .00000804  00000-0  72859-4 0  9991","CENTER_NAME":"EARTH","NORAD_CAT_ID":"46711","EPOCH":"2022-01-13T19:17:37.912992","MEAN_ELEMENT_THEORY":"SGP4","RCS_SIZE":"LARGE","TIME_SYSTEM":"UTC","OBJECT_TYPE":"PAYLOAD","MEAN_ANOMALY":"279.4177","OBJECT_ID":"2020-073AT","OBJECT_NAME":"STARLINK-1813","PERIAPSIS":"545.817","TLE_LINE2":"2 46711  53.0536 206.7000 0002028  80.7041 279.4177 15.06397280 68653","MEAN_MOTION_DOT":"0.00000804","ELEMENT_SET_NO":"999","DECAY_DATE":null,"CLASSIFICATION_TYPE":"U","SITE":"AFETR","EPHEMERIS_TYPE":"0","PERIOD":"95.592","MEAN_MOTION_DDOT":"0.0000000000000","REF_FRAME":"TEME","BSTAR":"0.00007285900000","INCLINATION":"53.0536","ECCENTRICITY":"0.00020280","FILE":"3272312","GP_ID":"193811173","APOAPSIS":"548.626"},{"LAUNCH_DATE":"2020-10-18","SEMIMAJOR_AXIS":"6925.337","ARG_OF_PERICENTER":"76.9481","COUNTRY_CODE":"US","MEAN_MOTION":"15.06403899","REV_AT_EPOCH":"6864","TIME_SYSTEM":"UTC","OBJECT_TYPE":"PAYLOAD","RCS_SIZE":"LARGE","EPOCH":"2022-01-13T18:28:30.762336","MEAN_ELEMENT_THEORY":"SGP4","CENTER_NAME":"EARTH","TLE_LINE1":"1 46712U 20073AU  22013.76980049  .00001612  00000-0  12712-3 0  9999","NORAD_CAT_ID":"46712","RA_OF_ASC_NODE":"206.8566","OBJECT_ID":"2020-073AU","MEAN_ANOMALY":"283.1761","CLASSIFICATION_TYPE":"U","SITE":"AFETR","DECAY_DATE":null,"ELEMENT_SET_NO":"999","MEAN_MOTION_DOT":"0.00001612","TLE_LINE2":"2 46712  53.0524 206.8566 0002268  76.9481 283.1761 15.06403899 68644","PERIAPSIS":"545.631","OBJECT_NAME":"STARLINK-1814","MEAN_MOTION_DDOT":"0.0000000000000","PERIOD":"95.592","EPHEMERIS_TYPE":"0","INCLINATION":"53.0524","BSTAR":"0.00012712000000","REF_FRAME":"TEME","GP_ID":"193811424","APOAPSIS":"548.772","FILE":"3272312","ECCENTRICITY":"0.00022680"},{"LAUNCH_DATE":"2020-10-18","SEMIMAJOR_AXIS":"6925.368","ARG_OF_PERICENTER":"77.1526","COUNTRY_CODE":"US","MEAN_MOTION":"15.06393617","REV_AT_EPOCH":"6865","TIME_SYSTEM":"UTC","OBJECT_TYPE":"PAYLOAD","RCS_SIZE":"LARGE","EPOCH":"2022-01-13T20:21:19.043712","MEAN_ELEMENT_THEORY":"SGP4","TLE_LINE1":"1 46713U 20073AV  22013.84813708 -.00000411  00000-0 -86678-5 0  9998","CENTER_NAME":"EARTH","NORAD_CAT_ID":"46713","RA_OF_ASC_NODE":"206.5027","OBJECT_ID":"2020-073AV","MEAN_ANOMALY":"282.9717","SITE":"AFETR","CLASSIFICATION_TYPE":"U","DECAY_DATE":null,"ELEMENT_SET_NO":"999","MEAN_MOTION_DOT":"-0.00000411","PERIAPSIS":"545.653","TLE_LINE2":"2 46713  53.0522 206.5027 0002281  77.1526 282.9717 15.06393617 68655","OBJECT_NAME":"STARLINK-1815","PERIOD":"95.593","MEAN_MOTION_DDOT":"0.0000000000000","EPHEMERIS_TYPE":"0","INCLINATION":"53.0522","BSTAR":"-0.00000866780000","REF_FRAME":"TEME","APOAPSIS":"548.813","GP_ID":"193811675","FILE":"3272312","ECCENTRICITY":"0.00022810"},{"EPHEMERIS_TYPE":"0","MEAN_MOTION_DDOT":"0.0000000000000","PERIOD":"95.592","OBJECT_NAME":"STARLINK-1816","PERIAPSIS":"545.493","TLE_LINE2":"2 46714  53.0547 206.8489 0002455  72.7166 287.4091 15.06406554 68641","ELEMENT_SET_NO":"999","MEAN_MOTION_DOT":"0.00000680","SITE":"AFETR","CLASSIFICATION_TYPE":"U","DECAY_DATE":null,"ECCENTRICITY":"0.00024550","FILE":"3272312","GP_ID":"193810423","APOAPSIS":"548.894","REF_FRAME":"TEME","BSTAR":"0.00006457700000","INCLINATION":"53.0547","REV_AT_EPOCH":"6864","SEMIMAJOR_AXIS":"6925.328","ARG_OF_PERICENTER":"72.7166","COUNTRY_CODE":"US","MEAN_MOTION":"15.06406554","LAUNCH_DATE":"2020-10-18","MEAN_ANOMALY":"287.4091","OBJECT_ID":"2020-073AW","RA_OF_ASC_NODE":"206.8489","MEAN_ELEMENT_THEORY":"SGP4","EPOCH":"2022-01-13T18:29:51.683712","TLE_LINE1":"1 46714U 20073AW  22013.77073708  .00000680  00000-0  64577-4 0  9998","NORAD_CAT_ID":"46714","CENTER_NAME":"EARTH","RCS_SIZE":"LARGE","OBJECT_TYPE":"PAYLOAD","TIME_SYSTEM":"UTC"},{"REV_AT_EPOCH":"6864","ARG_OF_PERICENTER":"69.3814","SEMIMAJOR_AXIS":"6925.353","MEAN_MOTION":"15.06398676","COUNTRY_CODE":"US","LAUNCH_DATE":"2020-10-18","MEAN_ANOMALY":"290.7428","OBJECT_ID":"2020-073AX","MEAN_ELEMENT_THEORY":"SGP4","EPOCH":"2022-01-13T18:24:33.132960","NORAD_CAT_ID":"46715","TLE_LINE1":"1 46715U 20073AX  22013.76705015  .00000829  00000-0  74593-4 0  9995","CENTER_NAME":"EARTH","RA_OF_ASC_NODE":"206.8651","TIME_SYSTEM":"UTC","OBJECT_TYPE":"PAYLOAD","RCS_SIZE":"LARGE","EPHEMERIS_TYPE":"0","MEAN_MOTION_DDOT":"0.0000000000000","PERIOD":"95.592","TLE_LINE2":"2 46715  53.0539 206.8651 0002364  69.3814 290.7428 15.06398676 68641","PERIAPSIS":"545.580","OBJECT_NAME":"STARLINK-1817","SITE":"AFETR","CLASSIFICATION_TYPE":"U","DECAY_DATE":null,"ELEMENT_SET_NO":"999","MEAN_MOTION_DOT":"0.00000829","ECCENTRICITY":"0.00023640","FILE":"3272312","GP_ID":"193810673","APOAPSIS":"548.855","REF_FRAME":"TEME","INCLINATION":"53.0539","BSTAR":"0.00007459300000"},{"LAUNCH_DATE":"2020-10-18","ARG_OF_PERICENTER":"66.0534","SEMIMAJOR_AXIS":"6925.334","COUNTRY_CODE":"US","MEAN_MOTION":"15.06404855","REV_AT_EPOCH":"6844","RCS_SIZE":"LARGE","OBJECT_TYPE":"PAYLOAD","TIME_SYSTEM":"UTC","RA_OF_ASC_NODE":"221.5069","MEAN_ELEMENT_THEORY":"SGP4","EPOCH":"2022-01-13T20:21:58.818816","NORAD_CAT_ID":"46716","TLE_LINE1":"1 46716U 20073AY  22013.84859744 -.00002894  00000-0 -17538-3 0  9995","CENTER_NAME":"EARTH","OBJECT_ID":"2020-073AY","MEAN_ANOMALY":"294.0719","ELEMENT_SET_NO":"999","MEAN_MOTION_DOT":"-0.00002894","CLASSIFICATION_TYPE":"U","SITE":"AFETR","DECAY_DATE":null,"OBJECT_NAME":"STARLINK-1818","TLE_LINE2":"2 46716  53.0547 221.5069 0002523  66.0534 294.0719 15.06404855 68443","PERIAPSIS":"545.451","MEAN_MOTION_DDOT":"0.0000000000000","PERIOD":"95.592","EPHEMERIS_TYPE":"0","BSTAR":"-0.00017538000000","INCLINATION":"53.0547","REF_FRAME":"TEME","APOAPSIS":"548.946","GP_ID":"193811925","ECCENTRICITY":"0.00025230","FILE":"3272312"},{"INCLINATION":"53.0537","BSTAR":"0.00000924250000","REF_FRAME":"TEME","APOAPSIS":"548.836","GP_ID":"193812176","FILE":"3272312","ECCENTRICITY":"0.00023310","DECAY_DATE":null,"CLASSIFICATION_TYPE":"U","SITE":"AFETR","MEAN_MOTION_DOT":"-0.00000144","ELEMENT_SET_NO":"999","PERIAPSIS":"545.608","TLE_LINE2":"2 46717  53.0537 206.4736 0002331  75.9323 284.1925 15.06397296 68650","OBJECT_NAME":"STARLINK-1820","MEAN_MOTION_DDOT":"0.0000000000000","PERIOD":"95.592","EPHEMERIS_TYPE":"0","TIME_SYSTEM":"UTC","OBJECT_TYPE":"PAYLOAD","RCS_SIZE":"LARGE","TLE_LINE1":"1 46717U 20073AZ  22013.85183014 -.00000144  00000-0  92425-5 0  9992","CENTER_NAME":"EARTH","NORAD_CAT_ID":"46717","EPOCH":"2022-01-13T20:26:38.124096","MEAN_ELEMENT_THEORY":"SGP4","RA_OF_ASC_NODE":"206.4736","OBJECT_ID":"2020-073AZ","MEAN_ANOMALY":"284.1925","LAUNCH_DATE":"2020-10-18","COUNTRY_CODE":"US","MEAN_MOTION":"15.06397296","SEMIMAJOR_AXIS":"6925.357","ARG_OF_PERICENTER":"75.9323","REV_AT_EPOCH":"6865"},{"REV_AT_EPOCH":"6845","SEMIMAJOR_AXIS":"6925.390","ARG_OF_PERICENTER":"77.4783","COUNTRY_CODE":"US","MEAN_MOTION":"15.06386499","LAUNCH_DATE":"2020-10-18","MEAN_ANOMALY":"282.6448","OBJECT_ID":"2020-073BA","RA_OF_ASC_NODE":"221.3022","EPOCH":"2022-01-13T21:25:40.738368","MEAN_ELEMENT_THEORY":"SGP4","CENTER_NAME":"EARTH","TLE_LINE1":"1 46718U 20073BA  22013.89283262 -.00000917  00000-0 -42637-4 0  9991","NORAD_CAT_ID":"46718","RCS_SIZE":"LARGE","TIME_SYSTEM":"UTC","OBJECT_TYPE":"PAYLOAD","EPHEMERIS_TYPE":"0","PERIOD":"95.593","MEAN_MOTION_DDOT":"0.0000000000000","OBJECT_NAME":"STARLINK-1821","TLE_LINE2":"2 46718  53.0524 221.3022 0002162  77.4783 282.6448 15.06386499 68454","PERIAPSIS":"545.758","ELEMENT_SET_NO":"999","MEAN_MOTION_DOT":"-0.00000917","CLASSIFICATION_TYPE":"U","SITE":"AFETR","DECAY_DATE":null,"ECCENTRICITY":"0.00021620","FILE":"3272312","APOAPSIS":"548.752","GP_ID":"193810924","REF_FRAME":"TEME","BSTAR":"-0.00004263700000","INCLINATION":"53.0524"},{"MEAN_ANOMALY":"279.1755","OBJECT_ID":"2020-073BB","MEAN_ELEMENT_THEORY":"SGP4","EPOCH":"2022-01-13T17:50:01.814784","TLE_LINE1":"1 46719U 20073BB  22013.74307656  .00001066  00000-0  90474-4 0  9996","NORAD_CAT_ID":"46719","CENTER_NAME":"EARTH","RA_OF_ASC_NODE":"186.9704","TIME_SYSTEM":"UTC","OBJECT_TYPE":"PAYLOAD","RCS_SIZE":"LARGE","REV_AT_EPOCH":"6892","SEMIMAJOR_AXIS":"6925.325","ARG_OF_PERICENTER":"80.9504","MEAN_MOTION":"15.06407825","COUNTRY_CODE":"US","LAUNCH_DATE":"2020-10-18","FILE":"3272312","ECCENTRICITY":"0.00023880","APOAPSIS":"548.843","GP_ID":"193811174","REF_FRAME":"TEME","INCLINATION":"53.0549","BSTAR":"0.00009047400000","EPHEMERIS_TYPE":"0","PERIOD":"95.592","MEAN_MOTION_DDOT":"0.0000000000000","PERIAPSIS":"545.536","TLE_LINE2":"2 46719  53.0549 186.9704 0002388  80.9504 279.1755 15.06407825 68926","OBJECT_NAME":"STARLINK-1822","SITE":"AFETR","CLASSIFICATION_TYPE":"U","DECAY_DATE":null,"ELEMENT_SET_NO":"999","MEAN_MOTION_DOT":"0.00001066"},{"REV_AT_EPOCH":"6936","COUNTRY_CODE":"US","MEAN_MOTION":"15.48176981","SEMIMAJOR_AXIS":"6800.196","ARG_OF_PERICENTER":"219.6751","LAUNCH_DATE":"2020-10-18","MEAN_ANOMALY":"140.4185","OBJECT_ID":"2020-073BC","RA_OF_ASC_NODE":"155.0250","NORAD_CAT_ID":"46720","TLE_LINE1":"1 46720U 20073BC  22013.64684799  .00019914  00000-0  37984-3 0  9990","CENTER_NAME":"EARTH","MEAN_ELEMENT_THEORY":"SGP4","EPOCH":"2022-01-13T15:31:27.666336","RCS_SIZE":"LARGE","OBJECT_TYPE":"PAYLOAD","TIME_SYSTEM":"UTC","EPHEMERIS_TYPE":"0","MEAN_MOTION_DDOT":"0.0000000000000","PERIOD":"93.013","OBJECT_NAME":"STARLINK-1823","TLE_LINE2":"2 46720  53.0538 155.0250 0000973 219.6751 140.4185 15.48176981 69360","PERIAPSIS":"421.399","MEAN_MOTION_DOT":"0.00019914","ELEMENT_SET_NO":"999","DECAY_DATE":null,"CLASSIFICATION_TYPE":"U","SITE":"AFETR","FILE":"3272312","ECCENTRICITY":"0.00009730","GP_ID":"193811425","APOAPSIS":"422.723","REF_FRAME":"TEME","BSTAR":"0.00037984000000","INCLINATION":"53.0538"}];
